{
 "type": "FeatureCollection",
 "name": "isroads-curated",
 "schema": "docs/trails-schema.md",
 "features": [
  {
   "type": "Feature",
   "properties": {
    "kind": "stop",
    "id": "seed-0",
    "name": "עין חוקוק",
    "category": "water",
    "description": "מעיין הנובע בגליל התחתון ליד קיבוץ חוקוק, סמוך לכביש 65. מבנה אבן היסטורי מתקופת המנדט."
   },
   "geometry": {
    "type": "Point",
    "coordinates": [
     35.4836,
     32.8842
    ]
   }
  },
  {
   "type": "Feature",
   "properties": {
    "kind": "stop",
    "id": "seed-1",
    "name": "עין חושניה",
    "category": "water",
    "description": "קבוצת נביעות במרכז רמת הגולן, בתחומי שמורת אירוס חושניה, בגובה כ-790 מ'."
   },
   "geometry": {
    "type": "Point",
    "coordinates": [
     35.82505,
     33.00282
    ]
   }
  },
  {
   "type": "Feature",
   "properties": {
    "kind": "stop",
    "id": "seed-2",
    "name": "עין חשרת",
    "category": "water",
    "description": "מעיין שכבה בגדה הצפונית של נחל השופט, ברמות מנשה, עם ניקבות חצובות בסלע."
   },
   "geometry": {
    "type": "Point",
    "coordinates": [
     35.11344,
     32.63962
    ]
   }
  },
  {
   "type": "Feature",
   "properties": {
    "kind": "stop",
    "id": "seed-3",
    "name": "עין משואות",
    "category": "water",
    "description": "מעיין שכבה בהרי יהודה, בגוש עציון, ליד היישוב בת עין."
   },
   "geometry": {
    "type": "Point",
    "coordinates": [
     35.1022,
     31.6576
    ]
   }
  },
  {
   "type": "Feature",
   "properties": {
    "kind": "stop",
    "id": "seed-4",
    "name": "עין הבשור",
    "category": "water",
    "description": "מעיין שופע בתחום גן לאומי אשכול בנגב המערבי, לאורך נחל הבשור."
   },
   "geometry": {
    "type": "Point",
    "coordinates": [
     34.492671,
     31.307714
    ]
   }
  },
  {
   "type": "Feature",
   "properties": {
    "kind": "stop",
    "id": "seed-5",
    "name": "מכתש רמון - תצפית",
    "category": "viewpoint",
    "description": "תצפית על מכתש רמון מאזור מרכז המבקרים במצפה רמון. שמורת אור כוכבים בינלאומית."
   },
   "geometry": {
    "type": "Point",
    "coordinates": [
     34.801501,
     30.612367
    ]
   }
  },
  {
   "type": "Feature",
   "properties": {
    "kind": "stop",
    "id": "seed-6",
    "name": "מצדה",
    "category": "heritage",
    "description": "מבצר עתיק על צוק מבודד במדבר יהודה, משקיף על ים המלח. אתר מורשת עולמית של אונסק\"ו."
   },
   "geometry": {
    "type": "Point",
    "coordinates": [
     35.35389,
     31.31556
    ]
   }
  }
 ]
}